{
  "type": "FeatureCollection",
  "features": [
    {
      "type": "Feature",
      "properties": {
        "norad_id": 34955,
        "name": "COSMOS 2251 DEB",
        "group": "cosmos-2251-debris",
        "lat": 47.037124615546226,
        "lon": -78.14335988951181,
        "alt_km": 546.2887807807674,
        "timestamp": "2025-12-04T03:47:54.937643+00:00",
        "meta_object_name": "COSMOS 2251 DEB",
        "meta_object_id": "1993-036AEJ",
        "meta_epoch": "2025-12-03T01:58:24.293568",
        "meta_mean_motion": 15.00189355,
        "meta_eccentricity": 0.00783052,
        "meta_inclination": 74.0373,
        "meta_ra_of_asc_node": 266.1437,
        "meta_arg_of_pericenter": 338.174,
        "meta_mean_anomaly": 21.6115,
        "meta_ephemeris_type": 0,
        "meta_classification_type": "U",
        "meta_norad_cat_id": 34955,
        "meta_element_set_no": 999,
        "meta_rev_at_epoch": 89889,
        "meta_bstar": 0.0013091752,
        "meta_mean_motion_dot": 0.00017463,
        "meta_mean_motion_ddot": 0,
        "tle_line1": "1 34955U 93036AEJ 25337.08222562  .00017463  00000+0  13092-2 0  9991",
        "tle_line2": "2 34955  74.0373 266.1437 0078305 338.1740  21.6115 15.00189355898895"
      },
      "geometry": {
        "type": "Point",
        "coordinates": [
          -78.14335988951181,
          47.037124615546226
        ]
      }
    },
    {
      "type": "Feature",
      "properties": {
        "norad_id": 34962,
        "name": "COSMOS 2251 DEB",
        "group": "cosmos-2251-debris",
        "lat": 58.46910994982579,
        "lon": -122.78276657822481,
        "alt_km": 733.2559259480277,
        "timestamp": "2025-12-04T03:47:54.937653+00:00",
        "meta_object_name": "COSMOS 2251 DEB",
        "meta_object_id": "1993-036AER",
        "meta_epoch": "2025-12-03T09:15:09.557856",
        "meta_mean_motion": 14.4647129,
        "meta_eccentricity": 0.0018557,
        "meta_inclination": 74.0295,
        "meta_ra_of_asc_node": 210.8361,
        "meta_arg_of_pericenter": 325.0213,
        "meta_mean_anomaly": 34.9725,
        "meta_ephemeris_type": 0,
        "meta_classification_type": "U",
        "meta_norad_cat_id": 34962,
        "meta_element_set_no": 999,
        "meta_rev_at_epoch": 87443,
        "meta_bstar": 0.0006019,
        "meta_mean_motion_dot": 2.143e-05,
        "meta_mean_motion_ddot": 0,
        "tle_line1": "1 34962U 93036AER 25337.38552729  .00002143  00000+0  60190-3 0  9994",
        "tle_line2": "2 34962  74.0295 210.8361 0018557 325.0213  34.9725 14.46471290874430"
      },
      "geometry": {
        "type": "Point",
        "coordinates": [
          -122.78276657822481,
          58.46910994982579
        ]
      }
    },
    {
      "type": "Feature",
      "properties": {
        "norad_id": 34963,
        "name": "COSMOS 2251 DEB",
        "group": "cosmos-2251-debris",
        "lat": -0.9005588583098505,
        "lon": -120.99123630866238,
        "alt_km": 717.8271485488367,
        "timestamp": "2025-12-04T03:47:54.937663+00:00",
        "meta_object_name": "COSMOS 2251 DEB",
        "meta_object_id": "1993-036AES",
        "meta_epoch": "2025-12-03T12:04:13.425024",
        "meta_mean_motion": 14.50919507,
        "meta_eccentricity": 0.004263,
        "meta_inclination": 74.172,
        "meta_ra_of_asc_node": 59.975,
        "meta_arg_of_pericenter": 258.0433,
        "meta_mean_anomaly": 101.5948,
        "meta_ephemeris_type": 0,
        "meta_classification_type": "U",
        "meta_norad_cat_id": 34963,
        "meta_element_set_no": 999,
        "meta_rev_at_epoch": 86667,
        "meta_bstar": 0.0019734,
        "meta_mean_motion_dot": 7.865e-05,
        "meta_mean_motion_ddot": 0,
        "tle_line1": "1 34963U 93036AES 25337.50293316  .00007865  00000+0  19734-2 0  9996",
        "tle_line2": "2 34963  74.1720  59.9750 0042630 258.0433 101.5948 14.50919507866675"
      },
      "geometry": {
        "type": "Point",
        "coordinates": [
          -120.99123630866238,
          -0.9005588583098505
        ]
      }
    },
    {
      "type": "Feature",
      "properties": {
        "norad_id": 34964,
        "name": "COSMOS 2251 DEB",
        "group": "cosmos-2251-debris",
        "lat": -38.926750503308874,
        "lon": -10.646136348831288,
        "alt_km": 912.0184718412438,
        "timestamp": "2025-12-04T03:47:54.937673+00:00",
        "meta_object_name": "COSMOS 2251 DEB",
        "meta_object_id": "1993-036AET",
        "meta_epoch": "2025-12-01T10:51:07.970112",
        "meta_mean_motion": 14.00515212,
        "meta_eccentricity": 0.02132053,
        "meta_inclination": 73.9732,
        "meta_ra_of_asc_node": 7.4842,
        "meta_arg_of_pericenter": 228.1536,
        "meta_mean_anomaly": 130.1229,
        "meta_ephemeris_type": 0,
        "meta_classification_type": "U",
        "meta_norad_cat_id": 34964,
        "meta_element_set_no": 999,
        "meta_rev_at_epoch": 84320,
        "meta_bstar": 0.0017784594,
        "meta_mean_motion_dot": 3.191e-05,
        "meta_mean_motion_ddot": 0,
        "tle_line1": "1 34964U 93036AET 25335.45217558  .00003191  00000+0  17785-2 0  9995",
        "tle_line2": "2 34964  73.9732   7.4842 0213205 228.1536 130.1229 14.00515212843200"
      },
      "geometry": {
        "type": "Point",
        "coordinates": [
          -10.646136348831288,
          -38.926750503308874
        ]
      }
    },
    {
      "type": "Feature",
      "properties": {
        "norad_id": 34965,
        "name": "COSMOS 2251 DEB",
        "group": "cosmos-2251-debris",
        "lat": -17.249829775475483,
        "lon": 139.4377937457719,
        "alt_km": 727.834067623131,
        "timestamp": "2025-12-04T03:47:54.937682+00:00",
        "meta_object_name": "COSMOS 2251 DEB",
        "meta_object_id": "1993-036AEU",
        "meta_epoch": "2025-12-03T11:18:27.086112",
        "meta_mean_motion": 14.48666516,
        "meta_eccentricity": 0.0026501,
        "meta_inclination": 74.0503,
        "meta_ra_of_asc_node": 145.8182,
        "meta_arg_of_pericenter": 274.4251,
        "meta_mean_anomaly": 85.3881,
        "meta_ephemeris_type": 0,
        "meta_classification_type": "U",
        "meta_norad_cat_id": 34965,
        "meta_element_set_no": 999,
        "meta_rev_at_epoch": 86979,
        "meta_bstar": 0.00047253,
        "meta_mean_motion_dot": 1.76e-05,
        "meta_mean_motion_ddot": 0,
        "tle_line1": "1 34965U 93036AEU 25337.47114683  .00001760  00000+0  47253-3 0  9999",
        "tle_line2": "2 34965  74.0503 145.8182 0026501 274.4251  85.3881 14.48666516869795"
      },
      "geometry": {
        "type": "Point",
        "coordinates": [
          139.4377937457719,
          -17.249829775475483
        ]
      }
    },
    {
      "type": "Feature",
      "properties": {
        "norad_id": 34967,
        "name": "COSMOS 2251 DEB",
        "group": "cosmos-2251-debris",
        "lat": 28.4422759409851,
        "lon": -81.18698635821548,
        "alt_km": 719.601420478325,
        "timestamp": "2025-12-04T03:47:54.937692+00:00",
        "meta_object_name": "COSMOS 2251 DEB",
        "meta_object_id": "1993-036AEW",
        "meta_epoch": "2025-12-01T02:30:41.683104",
        "meta_mean_motion": 14.44168549,
        "meta_eccentricity": 0.00374829,
        "meta_inclination": 73.9933,
        "meta_ra_of_asc_node": 275.5612,
        "meta_arg_of_pericenter": 64.8384,
        "meta_mean_anomaly": 295.6653,
        "meta_ephemeris_type": 0,
        "meta_classification_type": "U",
        "meta_norad_cat_id": 34967,
        "meta_element_set_no": 999,
        "meta_rev_at_epoch": 64789,
        "meta_bstar": 0.00079995093,
        "meta_mean_motion_dot": 2.741e-05,
        "meta_mean_motion_ddot": 0,
        "tle_line1": "1 34967U 93036AEW 25335.10464911  .00002741  00000+0  79995-3 0  9999",
        "tle_line2": "2 34967  73.9933 275.5612 0037482  64.8384 295.6653 14.44168549647896"
      },
      "geometry": {
        "type": "Point",
        "coordinates": [
          -81.18698635821548,
          28.4422759409851
        ]
      }
    },
    {
      "type": "Feature",
      "properties": {
        "norad_id": 34968,
        "name": "COSMOS 2251 DEB",
        "group": "cosmos-2251-debris",
        "lat": 39.39184379717826,
        "lon": 69.83477473543373,
        "alt_km": 714.770379435804,
        "timestamp": "2025-12-04T03:47:54.937728+00:00",
        "meta_object_name": "COSMOS 2251 DEB",
        "meta_object_id": "1993-036AEX",
        "meta_epoch": "2025-12-02T01:48:56.339712",
        "meta_mean_motion": 14.59372646,
        "meta_eccentricity": 0.00862303,
        "meta_inclination": 74.039,
        "meta_ra_of_asc_node": 267.3956,
        "meta_arg_of_pericenter": 30.5548,
        "meta_mean_anomaly": 330.0599,
        "meta_ephemeris_type": 0,
        "meta_classification_type": "U",
        "meta_norad_cat_id": 34968,
        "meta_element_set_no": 999,
        "meta_rev_at_epoch": 88322,
        "meta_bstar": 0.00022982614,
        "meta_mean_motion_dot": 1.114e-05,
        "meta_mean_motion_ddot": 0,
        "tle_line1": "1 34968U 93036AEX 25336.07565208  .00001114  00000+0  22983-3 0  9996",
        "tle_line2": "2 34968  74.0390 267.3956 0086230  30.5548 330.0599 14.59372646883226"
      },
      "geometry": {
        "type": "Point",
        "coordinates": [
          69.83477473543373,
          39.39184379717826
        ]
      }
    }
  ]
}